SARSAT 7 (NOAA 15)      
1 25338U 98030A   17288.49529043  .00000057  00000-0  23836-4 0  9991
2 25338  98.7843 299.6383 0010164 216.8147 143.2938 14.25820166 10144
GPS BIIR-07             
1 26690U 01004A   17278.50736118  .00000045  00000-0  00000+0 0  9992
2 26690  53.0550 153.2199 0183419 258.2173 259.0807  2.00567785122227
METEOSAT-8 (MSG-1)      
1 27509U 02040B   17278.04598194  .00000135  00000-0  00000+0 0  9992
2 27509   5.0281  57.8784 0001400 261.4294 112.6997  1.00280721 55391
GPS BIIR-08             
1 27663U 03005A   17278.15813133 -.00000041  00000-0  00000+0 0  9997
2 27663  56.6619 340.6067 0091902  24.9746 333.5444  2.00552594107587
GPS BIIR-11             
1 28190U 04009A   17278.47913819 -.00000045  00000-0  00000+0 0  9999
2 28190  56.0624  41.5573 0097838  61.1292 325.2939  2.00562987 99264
GPS BIIR-12             
1 28361U 04023A   17278.44329064  .00000002  00000-0  00000+0 0  9997
2 28361  54.0914 215.4640 0120279 222.2045  48.1584  2.00563359 97341
GPS BIIR-13             
1 28474U 04045A   17278.51545038  .00000035  00000-0  00000+0 0  9991
2 28474  54.3027  93.1566 0173214 248.4139  77.3128  2.00572525 94714
SARSAT 10 (NOAA 18)     
1 28654U 05018A   17288.48807442  .00000169  00000-0  91852-4 0  9997
2 28654  99.1784 313.5979 0014690  94.0633 266.2836 14.12354577639243
GPS BIIR-14M            
1 28874U 05038A   17278.47315146 -.00000048  00000-0  00000+0 0  9993
2 28874  56.2143  38.8350 0121727 254.7336 149.2428  2.00561472 88114
MSG-2                   
1 28912U 05049B   17278.15755539  .00000054  00000-0  00000+0 0  9993
2 28912   2.4119  71.3364 0000947 222.2686 146.5017  1.00267863 43221
GOES 13                 
1 29155U 06018A   17278.16840859 -.00000261  00000-0  00000+0 0  9992
2 29155   0.0794 111.0101 0002603   4.9284 244.1182  1.00276460 41662
SARSAT 11 (METOP-A)     
1 29499U 06044A   17288.43298774  .00000059  00000-0  26780-4 0  9998
2 29499  98.6648 345.9503 0000899 165.0108 195.1722 14.21510835570225
GPS BIIR-16M            
1 29601U 06052A   17277.47030144 -.00000040  00000-0  00000+0 0  9992
2 29601  56.6358 339.5518 0063430  51.0715 309.5623  2.00559859 79728
GPS BIIR-17M            
1 32260U 07047A   17277.28784164 -.00000007  00000-0  00000+0 0  9992
2 32260  53.2171 211.7624 0095655  33.9256 326.6726  2.00568858 73100
GPS BIIR-18M            
1 32384U 07062A   17278.08751109 -.00000048  00000-0  00000+0 0  9993
2 32384  56.2813  39.4394 0003141  25.8745 330.8338  2.00577402 71844
SARSAT 12 (NOAA 19)     
1 33591U 09005A   17288.43141343  .00000063  00000-0  34290-4 0  9995
2 33591  99.1077 257.0461 0013872 296.1360  63.8880 14.12217483447628
GOES 14                 
1 35491U 09033A   17278.25056128 -.00000103  00000-0  00000+0 0  9995
2 35491   0.3197 274.6656 0010309 305.4123 139.8759  1.00273491 30306
GOES 15                 
1 36411U 10008A   17278.33670683  .00000080  00000-0  00000+0 0  9992
2 36411   0.2931 275.7227 0005112 269.7634 174.5380  1.00273291 27833
ELEKTRO-L 1             
1 37344U 11001A   17277.41136735 -.00000209  00000-0  00000-0 0  9990
2 37344   2.6552  77.4851 0003034 267.6601  92.7982  1.00162584 24621
GLONASS-K 1             
1 37372U 11009A   17277.55775742  .00000005  00000-0  00000-0 0  9994
2 37372  65.4558  60.9388 0007413 220.9655  82.1081  2.13107646 51371
GPS BIIF-2              
1 37753U 11036A   17278.46467782  .00000043  00000-0  00000+0 0  9991
2 37753  55.5067  96.3765 0069387  34.4396  18.8410  2.00562957 45550
GSAT0101 (GALILEO-PFM)  
1 37846U 11060A   17275.55820574  .00000006  00000-0  00000+0 0  9999
2 37846  55.9106  68.7080 0001792  10.1178 349.9003  1.70473598 37048
GSAT0102 (GALILEO-FM2)  
1 37847U 11060B   17277.23313292  .00000004  00000-0  00000-0 0  9990
2 37847  55.9125  68.6604 0002267 314.9130  37.3479  1.70475855 36943
LUCH 5A                 
1 37951U 11074B   17277.72573249 -.00000052  00000-0  00000-0 0  9999
2 37951   1.6042 171.0408 0002497  42.1651 228.7784  1.00275123 21329
MSG-3                   
1 38552U 12035B   17277.96110379 -.00000014  00000-0  00000+0 0  9999
2 38552   0.8375   5.8283 0001462 212.6199 141.5711  1.00264230 19364
SARSAT 13 (METOP-B)     
1 38771U 12049A   17288.47135948  .00000077  00000-0  35228-4 0  9997
2 38771  98.7097 346.6999 0000715 279.4179  80.7543 14.21490063263363
GPS BIIF-3              
1 38833U 12053A   17277.88165728  .00000011  00000-0  00000+0 0  9996
2 38833  54.0909 274.0467 0059147  24.7684 335.5228  2.00563236 36612
GSAT0103 (GALILEO-FM3)  
1 38857U 12055A   17275.60093906 -.00000007  00000-0  00000+0 0  9996
2 38857  54.9048 189.0608 0003187 249.2771 110.7135  1.70473827 30961
GSAT0104 (GALILEO-FM4)  
1 38858U 12055B   17276.70838675 -.00000003  00000-0  00000-0 0  9996
2 38858  54.9055 189.0292 0002074 253.8377 106.1699  1.70473883 30973
GPS BIIF-4              
1 39166U 13023A   17278.23318637 -.00000052  00000-0  00000+0 0  9999
2 39166  55.9187  35.8238 0048647  19.8861 340.3043  2.00564031 32152
INSAT-3D                
1 39216U 13038B   17277.73395834 -.00000167  00000-0  00000-0 0  9997
2 39216   0.0559  93.3761 0001111 132.0201 134.6242  1.00272576 15259
GPS BIIF-5              
1 39533U 14008A   17278.23575436  .00000010  00000-0  00000+0 0  9996
2 39533  54.2422 279.3447 0030792 189.3424 170.6156  2.00569377 26511
LUCH 5V                 
1 39727U 14023A   17277.78184368 -.00000282  00000-0  00000-0 0  9990
2 39727   2.4984 298.8860 0001989 291.2633 159.6720  1.00268735530663
GPS BIIF-6              
1 39741U 14026A   17278.51714436  .00000042  00000-0  00000+0 0  9998
2 39741  55.4925  95.8957 0007753 286.3380  73.6272  2.00553660 24809
GPS BIIF-7              
1 40105U 14045A   17278.10585070  .00000000  00000-0  00000+0 0  9994
2 40105  54.6158 215.4435 0006389 109.9316 250.1263  2.00552777 23245
GSAT0201 (GALILEO 5)    
1 40128U 14050A   17277.47935668 -.00000057  00000-0  00000-0 0  9990
2 40128  50.3654  40.8332 1632425  67.3087 309.0661  1.85519579 19391
GSAT0202 (GALILEO 6)    
1 40129U 14050B   17277.20761606 -.00000058  00000-0  00000-0 0  9992
2 40129  50.4174  39.8450 1633008  68.2792 308.2462  1.85520231 21525
GPS BIIF-8              
1 40294U 14068A   17277.98155587  .00000045  00000-0  00000+0 0  9998
2 40294  55.0150 156.1323 0009414  15.8040 344.3241  2.00566698 21460
GLONASS-K 2             
1 40315U 14075A   17277.71221572  .00000030  00000-0  00000-0 0  9994
2 40315  64.3533 301.5025 0017019 211.2815 331.6417  2.13098635 22144
GPS BIIF-9              
1 40534U 15013A   17278.12162020 -.00000038  00000-0  00000+0 0  9996
2 40534  54.8882 335.2514 0019810 351.3086   8.7295  2.00551590 18536
GSAT0203 (GALILEO 7)    
1 40544U 15017A   17277.68518832  .00000003  00000-0  00000-0 0  9999
2 40544  55.7016  68.9227 0002616 200.9453 159.0492  1.70475269 15035
GSAT0204 (GALILEO 8)    
1 40545U 15017B   17277.46813490  .00000004  00000-0  00000-0 0  9995
2 40545  55.7080  68.9406 0002982 150.1287 209.8947  1.70475464 15691
GPS BIIF-10             
1 40730U 15033A   17277.27742593 -.00000055  00000-0  00000+0 0  9999
2 40730  55.4517  35.4838 0028080 319.8737  39.9220  2.00560959 16277
GSAT0205 (GALILEO 9)    
1 40889U 15045A   17274.77575431 -.00000004  00000-0  00000+0 0  9998
2 40889  56.9367 309.2264 0002170 303.0038  57.0471  1.70474981 12794
GSAT0206 (GALILEO 10)   
1 40890U 15045B   17276.16881738  .00000000  00000-0  00000+0 0  9990
2 40890  56.9345 309.1858 0002246 260.4354  99.6125  1.70474942 12842
GPS BIIF-11             
1 41019U 15062A   17277.83015780  .00000045  00000-0  00000+0 0  9993
2 41019  55.0229 155.9310 0028788 200.0976 159.8864  2.00563814 14107
GSAT0209 (GALILEO 12)   
1 41174U 15079A   17269.88834779 -.00000013  00000-0  00000+0 0  9992
2 41174  54.9184 188.9075 0005000 296.1345  63.8381  1.70473131 11056
GSAT0208 (GALILEO 11)   
1 41175U 15079B   17275.97413373 -.00000006  00000-0  00000+0 0  9995
2 41175  54.9163 188.7401 0003887 297.0085  62.9790  1.70473092 11169
GPS BIIF-12             
1 41328U 16007A   17277.92275200 -.00000001  00000-0  00000+0 0  9994
2 41328  54.8710 215.6709 0015559 219.1503 140.7253  2.00552396 12165
GSAT0211 (GALILEO 14)   
1 41549U 16030A   17276.09451656  .00000001  00000-0  00000+0 0  9992
2 41549  57.0749 308.9437 0004456 262.7141  97.3084  1.70474758  8465
GSAT0210 (GALILEO 13)   
1 41550U 16030B   17276.97432792  .00000002  00000-0  00000-0 0  9993
2 41550  57.0736 308.9219 0004920 242.1176 117.9050  1.70474741  8483
GSAT0207 (GALILEO 15)   
1 41859U 16069A   17271.94172067 -.00000014  00000-0  00000-0 0  9999
2 41859  54.5775 189.4634 0004626 283.9493  76.0201  1.70473116  5295
GSAT0212 (GALILEO 16)   
1 41860U 16069B   17270.03534561 -.00000014  00000-0  00000+0 0  9990
2 41860  54.5751 189.5174 0003713 302.2036  57.7832  1.70473013  5354
GSAT0213 (GALILEO 17)   
1 41861U 16069C   17275.68112951 -.00000008  00000-0  00000+0 0  9995
2 41861  54.5772 189.3621 0003437 260.3225  99.6631  1.70473163  5448
GSAT0214 (GALILEO 18)   
1 41862U 16069D   17277.00098941 -.00000002  00000-0  00000+0 0  9990
2 41862  54.5753 189.3220 0002664 265.0905  94.9106  1.70472950  5461
